GLOBALSTAR M001         
1 25162U 98008A   25060.58475917 -.00000042  00000+0  41805-3 0  9997
2 25162  52.0029 286.4131 0002171  44.0316 352.0410 12.38208284230389
GLOBALSTAR M004         
1 25163U 98008B   25060.34256411 -.00000081  00000+0  12591-3 0  9991
2 25163  52.0023  23.1571 0003413  53.5790 102.1877 12.63388851248050
GLOBALSTAR M002         
1 25164U 98008C   25060.50744438 -.00000052  00000+0  48053-3 0  9991
2 25164  52.0003 150.1927 0000618 307.0525  53.0239 11.61508283171558
GLOBALSTAR M003         
1 25165U 98008D   25060.60891138 -.00000016  00000+0  78047-3 0  9999
2 25165  51.9988 106.4640 0008288  78.7956  86.6003 12.12073367220177
GLOBALSTAR M014         
1 25306U 98023A   25060.51401149 -.00000064  00000+0  26017-3 0  9995
2 25306  51.9834  75.6635 0001218 155.2252   7.4075 11.65478529178618
GLOBALSTAR M006         
1 25307U 98023B   25060.61839632 -.00000047  00000+0  58476-3 0  9994
2 25307  51.9928 123.8539 0003048 262.5763 266.2415 11.58172548204363
GLOBALSTAR M015         
1 25308U 98023C   25060.60241380 -.00000078  00000+0 -11372-3 0  9990
2 25308  51.9790 217.4335 0011895 241.6035 198.3314 11.48858705181715
GLOBALSTAR M008         
1 25309U 98023D   25060.52536692 -.00000046  00000+0  39461-3 0  9998
2 25309  51.9962 150.1934 0001916 311.6670 116.8249 12.36063484224531
